1998-067XK              
1 65731U 98067XK  26031.82799108  .00187937  00000+0  94709-3 0  9994
2 65731  51.6234 240.7272 0003828 194.6134 165.4758 15.80550718 21029
RSP-03                  
1 65732U 98067XL  26031.83996109  .00418910  78658-4  12178-2 0  9992
2 65732  51.6172 237.7491 0005357 220.4943 139.5666 15.92327526 21072
YOTSUBA-KULOVER         
1 65941U 98067XN  26030.99131031  .00093205  00000+0  79659-3 0  9990
2 65941  51.6252 250.9207 0004364 193.6559 166.4320 15.68698357 17567
BOTAN                   
1 65942U 98067XP  26030.99527225  .00228767  00000+0  12151-2 0  9991
2 65942  51.6191 247.9181 0005446 209.4507 150.6188 15.79268787 17602
E-KAGAKU-1              
1 65943U 98067XQ  26030.99163386  .00093741  00000+0  80341-3 0  9995
2 65943  51.6267 250.9321 0003296 204.5010 155.5830 15.68632349 17563
HRC MONOBLOCK CAMERA    
1 66052U 98067XR  26031.80745931  .00036453  00000+0  47390-3 0  9994
2 66052  51.6280 251.1287 0000315  20.3488 339.7517 15.58422936 16639
HTV-X1                  
1 66174U 25241A   26031.01605124  .00007848  00000+0  15394-3 0  9990
2 66174  51.6322 258.5893 0011098  48.1305 312.0628 15.48297710   517
SZ-21 MODULE            
1 66515U 25246C   26031.79273807  .00029338  00000+0  28368-3 0  9991
2 66515  41.4759  70.0056 0003354 262.5729  97.4731 15.65768813 12285
SHENZHOU-22             
1 66645U 25272A   26030.17114424  .00032690  00000+0  37481-3 0  9995
2 66645  41.4674  82.2287 0009086  36.5911 323.5548 15.61350410267643
SOYUZ-MS 28             
1 66664U 25275A   26031.79058160  .00007092  00000+0  13988-3 0  9996
2 66664  51.6322 254.7614 0011121  51.2288 308.9692 15.48310229550619
DUPLEX                  
1 66906U 98067XS  26031.82386140  .00026302  00000+0  41071-3 0  9999
2 66906  51.6293 253.4868 0001572  81.8461 278.2707 15.53621251  9399
1998-067XT              
1 66907U 98067XT  26031.84642542  .00078348  00000+0  95077-3 0  9995
2 66907  51.6268 252.1368 0002789 161.7115 198.3979 15.59907385  9415
