CCSDS_OMM_VERS = 2.0
CREATION_DATE  = 
ORIGINATOR     = 

OBJECT_NAME    = 1998-067XK
OBJECT_ID      = 1998-067XK
CENTER_NAME    = EARTH
REF_FRAME      = TEME
TIME_SYSTEM    = UTC
MEAN_ELEMENT_THEORY = SGP/SGP4

EPOCH          = 2026-01-31T19:52:18.429312
MEAN_MOTION    = 15.80550718
ECCENTRICITY   = .0003828
INCLINATION    = 51.6234
RA_OF_ASC_NODE = 240.7272
ARG_OF_PERICENTER = 194.6134
MEAN_ANOMALY   = 165.4758

EPHEMERIS_TYPE = 0
CLASSIFICATION_TYPE = U
NORAD_CAT_ID   = 65731
ELEMENT_SET_NO = 999
REV_AT_EPOCH   = 2102
BSTAR          = .94709E-3
MEAN_MOTION_DOT = .187937E-2
MEAN_MOTION_DDOT = 0

CCSDS_OMM_VERS = 2.0
CREATION_DATE  = 
ORIGINATOR     = 

OBJECT_NAME    = RSP-03
OBJECT_ID      = 1998-067XL
CENTER_NAME    = EARTH
REF_FRAME      = TEME
TIME_SYSTEM    = UTC
MEAN_ELEMENT_THEORY = SGP/SGP4

EPOCH          = 2026-01-31T20:09:32.638176
MEAN_MOTION    = 15.92327526
ECCENTRICITY   = .0005357
INCLINATION    = 51.6172
RA_OF_ASC_NODE = 237.7491
ARG_OF_PERICENTER = 220.4943
MEAN_ANOMALY   = 139.5666

EPHEMERIS_TYPE = 0
CLASSIFICATION_TYPE = U
NORAD_CAT_ID   = 65732
ELEMENT_SET_NO = 999
REV_AT_EPOCH   = 2107
BSTAR          = .12178E-2
MEAN_MOTION_DOT = .41891E-2
MEAN_MOTION_DDOT = .78658E-4

CCSDS_OMM_VERS = 2.0
CREATION_DATE  = 
ORIGINATOR     = 

OBJECT_NAME    = YOTSUBA-KULOVER
OBJECT_ID      = 1998-067XN
CENTER_NAME    = EARTH
REF_FRAME      = TEME
TIME_SYSTEM    = UTC
MEAN_ELEMENT_THEORY = SGP/SGP4

EPOCH          = 2026-01-30T23:47:29.210784
MEAN_MOTION    = 15.68698357
ECCENTRICITY   = .00043647
INCLINATION    = 51.6252
RA_OF_ASC_NODE = 250.9207
ARG_OF_PERICENTER = 193.6559
MEAN_ANOMALY   = 166.4320

EPHEMERIS_TYPE = 0
CLASSIFICATION_TYPE = U
NORAD_CAT_ID   = 65941
ELEMENT_SET_NO = 999
REV_AT_EPOCH   = 1756
BSTAR          = .79658801E-3
MEAN_MOTION_DOT = .93205E-3
MEAN_MOTION_DDOT = 0

CCSDS_OMM_VERS = 2.0
CREATION_DATE  = 
ORIGINATOR     = 

OBJECT_NAME    = BOTAN
OBJECT_ID      = 1998-067XP
CENTER_NAME    = EARTH
REF_FRAME      = TEME
TIME_SYSTEM    = UTC
MEAN_ELEMENT_THEORY = SGP/SGP4

EPOCH          = 2026-01-30T23:53:11.522400
MEAN_MOTION    = 15.79268787
ECCENTRICITY   = .00054468
INCLINATION    = 51.6191
RA_OF_ASC_NODE = 247.9181
ARG_OF_PERICENTER = 209.4507
MEAN_ANOMALY   = 150.6188

EPHEMERIS_TYPE = 0
CLASSIFICATION_TYPE = U
NORAD_CAT_ID   = 65942
ELEMENT_SET_NO = 999
REV_AT_EPOCH   = 1760
BSTAR          = .12151242E-2
MEAN_MOTION_DOT = .228767E-2
MEAN_MOTION_DDOT = 0

CCSDS_OMM_VERS = 2.0
CREATION_DATE  = 
ORIGINATOR     = 

OBJECT_NAME    = E-KAGAKU-1
OBJECT_ID      = 1998-067XQ
CENTER_NAME    = EARTH
REF_FRAME      = TEME
TIME_SYSTEM    = UTC
MEAN_ELEMENT_THEORY = SGP/SGP4

EPOCH          = 2026-01-30T23:47:57.165504
MEAN_MOTION    = 15.68632349
ECCENTRICITY   = .00032967
INCLINATION    = 51.6267
RA_OF_ASC_NODE = 250.9321
ARG_OF_PERICENTER = 204.5010
MEAN_ANOMALY   = 155.5830

EPHEMERIS_TYPE = 0
CLASSIFICATION_TYPE = U
NORAD_CAT_ID   = 65943
ELEMENT_SET_NO = 999
REV_AT_EPOCH   = 1756
BSTAR          = .80341497E-3
MEAN_MOTION_DOT = .93741E-3
MEAN_MOTION_DDOT = 0

CCSDS_OMM_VERS = 2.0
CREATION_DATE  = 
ORIGINATOR     = 

OBJECT_NAME    = HRC MONOBLOCK CAMERA
OBJECT_ID      = 1998-067XR
CENTER_NAME    = EARTH
REF_FRAME      = TEME
TIME_SYSTEM    = UTC
MEAN_ELEMENT_THEORY = SGP/SGP4

EPOCH          = 2026-01-31T19:22:44.484384
MEAN_MOTION    = 15.58422936
ECCENTRICITY   = .0000315
INCLINATION    = 51.6280
RA_OF_ASC_NODE = 251.1287
ARG_OF_PERICENTER = 20.3488
MEAN_ANOMALY   = 339.7517

EPHEMERIS_TYPE = 0
CLASSIFICATION_TYPE = U
NORAD_CAT_ID   = 66052
ELEMENT_SET_NO = 999
REV_AT_EPOCH   = 1663
BSTAR          = .4739E-3
MEAN_MOTION_DOT = .36453E-3
MEAN_MOTION_DDOT = 0

CCSDS_OMM_VERS = 2.0
CREATION_DATE  = 
ORIGINATOR     = 

OBJECT_NAME    = HTV-X1
OBJECT_ID      = 2025-241A
CENTER_NAME    = EARTH
REF_FRAME      = TEME
TIME_SYSTEM    = UTC
MEAN_ELEMENT_THEORY = SGP/SGP4

EPOCH          = 2026-01-31T00:23:06.827136
MEAN_MOTION    = 15.48297710
ECCENTRICITY   = .00110987
INCLINATION    = 51.6322
RA_OF_ASC_NODE = 258.5893
ARG_OF_PERICENTER = 48.1305
MEAN_ANOMALY   = 312.0628

EPHEMERIS_TYPE = 0
CLASSIFICATION_TYPE = U
NORAD_CAT_ID   = 66174
ELEMENT_SET_NO = 999
REV_AT_EPOCH   = 51
BSTAR          = .15394496E-3
MEAN_MOTION_DOT = .7848E-4
MEAN_MOTION_DDOT = 0

CCSDS_OMM_VERS = 2.0
CREATION_DATE  = 
ORIGINATOR     = 

OBJECT_NAME    = SZ-21 MODULE
OBJECT_ID      = 2025-246C
CENTER_NAME    = EARTH
REF_FRAME      = TEME
TIME_SYSTEM    = UTC
MEAN_ELEMENT_THEORY = SGP/SGP4

EPOCH          = 2026-01-31T19:01:32.569248
MEAN_MOTION    = 15.65768813
ECCENTRICITY   = .0003354
INCLINATION    = 41.4759
RA_OF_ASC_NODE = 70.0056
ARG_OF_PERICENTER = 262.5729
MEAN_ANOMALY   = 97.4731

EPHEMERIS_TYPE = 0
CLASSIFICATION_TYPE = U
NORAD_CAT_ID   = 66515
ELEMENT_SET_NO = 999
REV_AT_EPOCH   = 1228
BSTAR          = .28368E-3
MEAN_MOTION_DOT = .29338E-3
MEAN_MOTION_DDOT = 0

CCSDS_OMM_VERS = 2.0
CREATION_DATE  = 
ORIGINATOR     = 

OBJECT_NAME    = SHENZHOU-22
OBJECT_ID      = 2025-272A
CENTER_NAME    = EARTH
REF_FRAME      = TEME
TIME_SYSTEM    = UTC
MEAN_ELEMENT_THEORY = SGP/SGP4

EPOCH          = 2026-01-30T04:06:26.862336
MEAN_MOTION    = 15.61350410
ECCENTRICITY   = .00090867
INCLINATION    = 41.4674
RA_OF_ASC_NODE = 82.2287
ARG_OF_PERICENTER = 36.5911
MEAN_ANOMALY   = 323.5548

EPHEMERIS_TYPE = 0
CLASSIFICATION_TYPE = U
NORAD_CAT_ID   = 66645
ELEMENT_SET_NO = 999
REV_AT_EPOCH   = 26764
BSTAR          = .3748084E-3
MEAN_MOTION_DOT = .3269E-3
MEAN_MOTION_DDOT = 0

CCSDS_OMM_VERS = 2.0
CREATION_DATE  = 
ORIGINATOR     = 

OBJECT_NAME    = SOYUZ-MS 28
OBJECT_ID      = 2025-275A
CENTER_NAME    = EARTH
REF_FRAME      = TEME
TIME_SYSTEM    = UTC
MEAN_ELEMENT_THEORY = SGP/SGP4

EPOCH          = 2026-01-31T18:58:26.250240
MEAN_MOTION    = 15.48310229
ECCENTRICITY   = .0011121
INCLINATION    = 51.6322
RA_OF_ASC_NODE = 254.7614
ARG_OF_PERICENTER = 51.2288
MEAN_ANOMALY   = 308.9692

EPHEMERIS_TYPE = 0
CLASSIFICATION_TYPE = U
NORAD_CAT_ID   = 66664
ELEMENT_SET_NO = 999
REV_AT_EPOCH   = 55061
BSTAR          = .13988E-3
MEAN_MOTION_DOT = .7092E-4
MEAN_MOTION_DDOT = 0

CCSDS_OMM_VERS = 2.0
CREATION_DATE  = 
ORIGINATOR     = 

OBJECT_NAME    = DUPLEX
OBJECT_ID      = 1998-067XS
CENTER_NAME    = EARTH
REF_FRAME      = TEME
TIME_SYSTEM    = UTC
MEAN_ELEMENT_THEORY = SGP/SGP4

EPOCH          = 2026-01-31T19:46:21.624960
MEAN_MOTION    = 15.53621251
ECCENTRICITY   = .0001572
INCLINATION    = 51.6293
RA_OF_ASC_NODE = 253.4868
ARG_OF_PERICENTER = 81.8461
MEAN_ANOMALY   = 278.2707

EPHEMERIS_TYPE = 0
CLASSIFICATION_TYPE = U
NORAD_CAT_ID   = 66906
ELEMENT_SET_NO = 999
REV_AT_EPOCH   = 939
BSTAR          = .41071E-3
MEAN_MOTION_DOT = .26302E-3
MEAN_MOTION_DDOT = 0

CCSDS_OMM_VERS = 2.0
CREATION_DATE  = 
ORIGINATOR     = 

OBJECT_NAME    = 1998-067XT
OBJECT_ID      = 1998-067XT
CENTER_NAME    = EARTH
REF_FRAME      = TEME
TIME_SYSTEM    = UTC
MEAN_ELEMENT_THEORY = SGP/SGP4

EPOCH          = 2026-01-31T20:18:51.156288
MEAN_MOTION    = 15.59907385
ECCENTRICITY   = .0002789
INCLINATION    = 51.6268
RA_OF_ASC_NODE = 252.1368
ARG_OF_PERICENTER = 161.7115
MEAN_ANOMALY   = 198.3979

EPHEMERIS_TYPE = 0
CLASSIFICATION_TYPE = U
NORAD_CAT_ID   = 66907
ELEMENT_SET_NO = 999
REV_AT_EPOCH   = 941
BSTAR          = .95077E-3
MEAN_MOTION_DOT = .78348E-3
MEAN_MOTION_DDOT = 0

